IXPE                    
1 49954U 21121A   24224.91668981  .00012738  00000+0  95354-3 0  9999
2 49954   0.2320 339.6050 0009046  28.4639 169.7383 14.99018032146271
